[{"OBJECT_NAME":"ION SCV-017","OBJECT_ID":"2025-052W","EPOCH":"2026-03-09T17:11:44.577024","MEAN_MOTION":15.26881798,"ECCENTRICITY":0.0023746,"INCLINATION":97.4016,"RA_OF_ASC_NODE":324.7516,"ARG_OF_PERICENTER":44.9875,"MEAN_ANOMALY":315.3282,"EPHEMERIS_TYPE":0,"CLASSIFICATION_TYPE":"U","NORAD_CAT_ID":63230,"ELEMENT_SET_NO":999,"REV_AT_EPOCH":5485,"BSTAR":0.00024539061,"MEAN_MOTION_DOT":6.457e-5,"MEAN_MOTION_DDOT":0},{"OBJECT_NAME":"STARLINK-35304","OBJECT_ID":"2025-245R","EPOCH":"2026-03-09T20:29:56.392224","MEAN_MOTION":15.30223002,"ECCENTRICITY":0.0002231,"INCLINATION":53.1587,"RA_OF_ASC_NODE":282.9916,"ARG_OF_PERICENTER":154.6324,"MEAN_ANOMALY":205.4787,"EPHEMERIS_TYPE":0,"CLASSIFICATION_TYPE":"U","NORAD_CAT_ID":66249,"ELEMENT_SET_NO":999,"REV_AT_EPOCH":2106,"BSTAR":0.0014180647,"MEAN_MOTION_DOT":0.00041908,"MEAN_MOTION_DDOT":0}]
