ION SCV-017             
1 63230U 25052W   26068.71648816  .00006457  00000+0  24539-3 0  9998
2 63230  97.4016 324.7516 0023746  44.9875 315.3282 15.26881798 54851
STARLINK-35304          
1 66249U 25245R   26068.85412491  .00041908  00000+0  14181-2 0  9999
2 66249  53.1587 282.9916 0002231 154.6324 205.4787 15.30223002 21068
